{"type": "FeatureCollection", "features": [ {"type": "Feature", "properties": {"norad_id": 66850, "name": "STARLINK-36105", "group": "last-30-days", "lat": -42.88298968846162, "lon": -25.13676900805043, "alt_km": 377.8729997604987, "timestamp": "2025-12-22T22:44:19.651680+00:00", "meta": {"OBJECT_NAME": "STARLINK-36105", "OBJECT_ID": "2025-281C", "EPOCH": "2025-12-22T14:00:01.999872", "MEAN_MOTION": 15.65786664, "ECCENTRICITY": 0.00013776, "INCLINATION": 43.0006, "RA_OF_ASC_NODE": 62.3232, "ARG_OF_PERICENTER": 285.5961, "MEAN_ANOMALY": 94.0829, "EPHEMERIS_TYPE": 0, "CLASSIFICATION_TYPE": "U", "NORAD_CAT_ID": 66850, "ELEMENT_SET_NO": 999, "REV_AT_EPOCH": 297, "BSTAR": -0.02130479, "MEAN_MOTION_DOT": -0.01959786, "MEAN_MOTION_DDOT": 0}, "tle": {"line1": "1 66850U 25281C   25356.58335648 -.01959786  00000+0 -21305-1 0  9994", "line2": "2 66850  43.0006  62.3232 0001377 285.5961  94.0829 15.65786664  2976"}}, "geometry": {"type": "Point", "coordinates": [-25.13676900805043, -42.88298968846162]}}, {"type": "Feature", "properties": {"norad_id": 66851, "name": "STARLINK-36094", "group": "last-30-days", "lat": -42.74604016293758, "lon": -22.538539276894166, "alt_km": 377.8369861920737, "timestamp": "2025-12-22T22:44:19.651690+00:00", "meta": {"OBJECT_NAME": "STARLINK-36094", "OBJECT_ID": "2025-281D", "EPOCH": "2025-12-22T14:00:01.999872", "MEAN_MOTION": 15.6578375, "ECCENTRICITY": 0.00013862, "INCLINATION": 43.0005, "RA_OF_ASC_NODE": 62.3182, "ARG_OF_PERICENTER": 284.0679, "MEAN_ANOMALY": 97.528, "EPHEMERIS_TYPE": 0, "CLASSIFICATION_TYPE": "U", "NORAD_CAT_ID": 66851, "ELEMENT_SET_NO": 999, "REV_AT_EPOCH": 297, "BSTAR": -0.021238964, "MEAN_MOTION_DOT": -0.01954251, "MEAN_MOTION_DDOT": 0}, "tle": {"line1": "1 66851U 25281D   25356.58335648 -.01954251  00000+0 -21239-1 0  9993", "line2": "2 66851  43.0005  62.3182 0001386 284.0679  97.5280 15.65783750  2972"}}, "geometry": {"type": "Point", "coordinates": [-22.538539276894166, -42.74604016293758]}}, {"type": "Feature", "properties": {"norad_id": 66852, "name": "STARLINK-35992", "group": "last-30-days", "lat": -42.55079466010951, "lon": -19.951937959185496, "alt_km": 377.79958060626086, "timestamp": "2025-12-22T22:44:19.651700+00:00", "meta": {"OBJECT_NAME": "STARLINK-35992", "OBJECT_ID": "2025-281E", "EPOCH": "2025-12-22T14:00:01.999872", "MEAN_MOTION": 15.65788611, "ECCENTRICITY": 0.00014311, "INCLINATION": 43.0009, "RA_OF_ASC_NODE": 62.3139, "ARG_OF_PERICENTER": 285.0706, "MEAN_ANOMALY": 98.4418, "EPHEMERIS_TYPE": 0, "CLASSIFICATION_TYPE": "U", "NORAD_CAT_ID": 66852, "ELEMENT_SET_NO": 999, "REV_AT_EPOCH": 297, "BSTAR": -0.021325959, "MEAN_MOTION_DOT": -0.01961678, "MEAN_MOTION_DDOT": 0}, "tle": {"line1": "1 66852U 25281E   25356.58335648 -.01961678  00000+0 -21326-1 0  9992", "line2": "2 66852  43.0009  62.3139 0001431 285.0706  98.4418 15.65788611  2976"}}, "geometry": {"type": "Point", "coordinates": [-19.951937959185496, -42.55079466010951]}}, {"type": "Feature", "properties": {"norad_id": 66853, "name": "STARLINK-35986", "group": "last-30-days", "lat": -42.29725659352544, "lon": -17.385984275333353, "alt_km": 377.80942311119816, "timestamp": "2025-12-22T22:44:19.651713+00:00", "meta": {"OBJECT_NAME": "STARLINK-35986", "OBJECT_ID": "2025-281F", "EPOCH": "2025-12-22T14:00:01.999872", "MEAN_MOTION": 15.65791689, "ECCENTRICITY": 0.00013926, "INCLINATION": 43.0008, "RA_OF_ASC_NODE": 62.3091, "ARG_OF_PERICENTER": 285.5584, "MEAN_ANOMALY": 99.8688, "EPHEMERIS_TYPE": 0, "CLASSIFICATION_TYPE": "U", "NORAD_CAT_ID": 66853, "ELEMENT_SET_NO": 999, "REV_AT_EPOCH": 297, "BSTAR": -0.021363134, "MEAN_MOTION_DOT": -0.01964878, "MEAN_MOTION_DDOT": 0}, "tle": {"line1": "1 66853U 25281F   25356.58335648 -.01964878  00000+0 -21363-1 0  9999", "line2": "2 66853  43.0008  62.3091 0001392 285.5584  99.8688 15.65791689  2971"}}, "geometry": {"type": "Point", "coordinates": [-17.385984275333353, -42.29725659352544]}}, {"type": "Feature", "properties": {"norad_id": 66854, "name": "STARLINK-36087", "group": "last-30-days", "lat": -41.98662440188532, "lon": -14.845333348287427, "alt_km": 377.818247385173, "timestamp": "2025-12-22T22:44:19.651726+00:00", "meta": {"OBJECT_NAME": "STARLINK-36087", "OBJECT_ID": "2025-281G", "EPOCH": "2025-12-22T14:00:01.999872", "MEAN_MOTION": 15.65788541, "ECCENTRICITY": 0.00013478, "INCLINATION": 43.0003, "RA_OF_ASC_NODE": 62.3036, "ARG_OF_PERICENTER": 286.2966, "MEAN_ANOMALY": 101.0471, "EPHEMERIS_TYPE": 0, "CLASSIFICATION_TYPE": "U", "NORAD_CAT_ID": 66854, "ELEMENT_SET_NO": 999, "REV_AT_EPOCH": 297, "BSTAR": -0.021294156, "MEAN_MOTION_DOT": -0.01959034, "MEAN_MOTION_DDOT": 0}, "tle": {"line1": "1 66854U 25281G   25356.58335648 -.01959034  00000+0 -21294-1 0  9991", "line2": "2 66854  43.0003  62.3036 0001347 286.2966 101.0471 15.65788541  2977"}}, "geometry": {"type": "Point", "coordinates": [-14.845333348287427, -41.98662440188532]}}, {"type": "Feature", "properties": {"norad_id": 66855, "name": "STARLINK-36090", "group": "last-30-days", "lat": -41.62051812820485, "lon": -12.327324459986562, "alt_km": 377.76939609211513, "timestamp": "2025-12-22T22:44:19.651736+00:00", "meta": {"OBJECT_NAME": "STARLINK-36090", "OBJECT_ID": "2025-281H", "EPOCH": "2025-12-22T14:00:01.999872", "MEAN_MOTION": 15.65787997, "ECCENTRICITY": 0.00013897, "INCLINATION": 43.0005, "RA_OF_ASC_NODE": 62.2992, "ARG_OF_PERICENTER": 285.6333, "MEAN_ANOMALY": 103.6291, "EPHEMERIS_TYPE": 0, "CLASSIFICATION_TYPE": "U", "NORAD_CAT_ID": 66855, "ELEMENT_SET_NO": 999, "REV_AT_EPOCH": 285, "BSTAR": -0.021299841, "MEAN_MOTION_DOT": -0.01959488, "MEAN_MOTION_DDOT": 0}, "tle": {"line1": "1 66855U 25281H   25356.58335648 -.01959488  00000+0 -21300-1 0  9993", "line2": "2 66855  43.0005  62.2992 0001389 285.6333 103.6291 15.65787997  2856"}}, "geometry": {"type": "Point", "coordinates": [-12.327324459986562, -41.62051812820485]}}, {"type": "Feature", "properties": {"norad_id": 66856, "name": "STARLINK-36072", "group": "last-30-days", "lat": -41.200917452849076, "lon": -9.845530413108792, "alt_km": 377.82725424050113, "timestamp": "2025-12-22T22:44:19.651746+00:00", "meta": {"OBJECT_NAME": "STARLINK-36072", "OBJECT_ID": "2025-281J", "EPOCH": "2025-12-22T14:00:01.999872", "MEAN_MOTION": 15.65787003, "ECCENTRICITY": 0.00012763, "INCLINATION": 43.0008, "RA_OF_ASC_NODE": 62.2941, "ARG_OF_PERICENTER": 288.463, "MEAN_ANOMALY": 102.7137, "EPHEMERIS_TYPE": 0, "CLASSIFICATION_TYPE": "U", "NORAD_CAT_ID": 66856, "ELEMENT_SET_NO": 999, "REV_AT_EPOCH": 297, "BSTAR": -0.021259015, "MEAN_MOTION_DOT": -0.01956023, "MEAN_MOTION_DDOT": 0}, "tle": {"line1": "1 66856U 25281J   25356.58335648 -.01956023  00000+0 -21259-1 0  9999", "line2": "2 66856  43.0008  62.2941 0001276 288.4630 102.7137 15.65787003  2970"}}, "geometry": {"type": "Point", "coordinates": [-9.845530413108792, -41.200917452849076]}}, {"type": "Feature", "properties": {"norad_id": 66857, "name": "STARLINK-36083", "group": "last-30-days", "lat": -40.72706869980539, "lon": -7.392607666617931, "alt_km": 377.82629325244943, "timestamp": "2025-12-22T22:44:19.651756+00:00", "meta": {"OBJECT_NAME": "STARLINK-36083", "OBJECT_ID": "2025-281K", "EPOCH": "2025-12-22T14:00:01.999872", "MEAN_MOTION": 15.65785293, "ECCENTRICITY": 0.00012508, "INCLINATION": 43.0006, "RA_OF_ASC_NODE": 62.2891, "ARG_OF_PERICENTER": 288.8602, "MEAN_ANOMALY": 104.2367, "EPHEMERIS_TYPE": 0, "CLASSIFICATION_TYPE": "U", "NORAD_CAT_ID": 66857, "ELEMENT_SET_NO": 999, "REV_AT_EPOCH": 297, "BSTAR": -0.02126079, "MEAN_MOTION_DOT": -0.01956029, "MEAN_MOTION_DDOT": 0}, "tle": {"line1": "1 66857U 25281K   25356.58335648 -.01956029  00000+0 -21261-1 0  9999", "line2": "2 66857  43.0006  62.2891 0001250 288.8602 104.2367 15.65785293  2979"}}, "geometry": {"type": "Point", "coordinates": [-7.392607666617931, -40.72706869980539]}}, {"type": "Feature", "properties": {"norad_id": 66858, "name": "STARLINK-35118", "group": "last-30-days", "lat": -40.20169586414768, "lon": -4.974954509861973, "alt_km": 377.732164424423, "timestamp": "2025-12-22T22:44:19.651768+00:00", "meta": {"OBJECT_NAME": "STARLINK-35118", "OBJECT_ID": "2025-281L", "EPOCH": "2025-12-22T14:00:01.999872", "MEAN_MOTION": 15.65786899, "ECCENTRICITY": 0.0001338, "INCLINATION": 43.0006, "RA_OF_ASC_NODE": 62.2839, "ARG_OF_PERICENTER": 284.857, "MEAN_ANOMALY": 110.1555, "EPHEMERIS_TYPE": 0, "CLASSIFICATION_TYPE": "U", "NORAD_CAT_ID": 66858, "ELEMENT_SET_NO": 999, "REV_AT_EPOCH": 276, "BSTAR": -0.021263989, "MEAN_MOTION_DOT": -0.01956465, "MEAN_MOTION_DDOT": 0}, "tle": {"line1": "1 66858U 25281L   25356.58335648 -.01956465  00000+0 -21264-1 0  9997", "line2": "2 66858  43.0006  62.2839 0001338 284.8570 110.1555 15.65786899  2764"}}, "geometry": {"type": "Point", "coordinates": [-4.974954509861973, -40.20169586414768]}}, {"type": "Feature", "properties": {"norad_id": 66859, "name": "STARLINK-35646", "group": "last-30-days", "lat": -39.62785466038114, "lon": -2.6003870963580074, "alt_km": 377.6773482409235, "timestamp": "2025-12-22T22:44:19.651778+00:00", "meta": {"OBJECT_NAME": "STARLINK-35646", "OBJECT_ID": "2025-281M", "EPOCH": "2025-12-22T14:00:01.999872", "MEAN_MOTION": 15.65785473, "ECCENTRICITY": 0.00013791, "INCLINATION": 43.0006, "RA_OF_ASC_NODE": 62.2795, "ARG_OF_PERICENTER": 287.8002, "MEAN_ANOMALY": 109.129, "EPHEMERIS_TYPE": 0, "CLASSIFICATION_TYPE": "U", "NORAD_CAT_ID": 66859, "ELEMENT_SET_NO": 999, "REV_AT_EPOCH": 297, "BSTAR": -0.021239005, "MEAN_MOTION_DOT": -0.01954369, "MEAN_MOTION_DDOT": 0}, "tle": {"line1": "1 66859U 25281M   25356.58335648 -.01954369  00000+0 -21239-1 0  9991", "line2": "2 66859  43.0006  62.2795 0001379 287.8002 109.1290 15.65785473  2978"}}, "geometry": {"type": "Point", "coordinates": [-2.6003870963580074, -39.62785466038114]}}]}